{"type": "FeatureCollection", "features": [ {"type": "Feature", "properties": {"norad_id": 38779, "name": "GSAT-10 (GAGAN/PRN 128)", "group": "gnss", "lat": -0.030673807639197703, "lon": 114.11350714028116, "alt_km": 35775.836378912, "timestamp": "2025-12-11T20:41:15.323877+00:00", "meta": {"OBJECT_NAME": "GSAT-10 (GAGAN/PRN 128)", "OBJECT_ID": "2012-051B", "EPOCH": "2025-12-11T13:54:20.298240", "MEAN_MOTION": 1.00273135, "ECCENTRICITY": 0.00024832, "INCLINATION": 0.0923, "RA_OF_ASC_NODE": 266.3382, "ARG_OF_PERICENTER": 226.9536, "MEAN_ANOMALY": 238.8266, "EPHEMERIS_TYPE": 0, "CLASSIFICATION_TYPE": "U", "NORAD_CAT_ID": 38779, "ELEMENT_SET_NO": 999, "REV_AT_EPOCH": 4821, "BSTAR": 0, "MEAN_MOTION_DOT": -1.58e-06, "MEAN_MOTION_DDOT": 0}, "tle": {"line1": "1 38779U 12051B   25345.57940160 -.00000158  00000+0  00000+0 0  9997", "line2": "2 38779   0.0923 266.3382 0002483 226.9536 238.8266  1.00273135 48212"}}, "geometry": {"type": "Point", "coordinates": [114.11350714028116, -0.030673807639197703]}}, {"type": "Feature", "properties": {"norad_id": 38833, "name": "GPS BIIF-3  (PRN 24)", "group": "gnss", "lat": 4.69884686350078, "lon": 154.74847986424186, "alt_km": 19929.570433536657, "timestamp": "2025-12-11T20:41:15.323889+00:00", "meta": {"OBJECT_NAME": "GPS BIIF-3  (PRN 24)", "OBJECT_ID": "2012-053A", "EPOCH": "2025-12-09T20:38:00.572640", "MEAN_MOTION": 2.00564945, "ECCENTRICITY": 0.0175755, "INCLINATION": 53.5569, "RA_OF_ASC_NODE": 151.3565, "ARG_OF_PERICENTER": 63.953, "MEAN_ANOMALY": 297.8432, "EPHEMERIS_TYPE": 0, "CLASSIFICATION_TYPE": "U", "NORAD_CAT_ID": 38833, "ELEMENT_SET_NO": 999, "REV_AT_EPOCH": 9564, "BSTAR": 0, "MEAN_MOTION_DOT": 6.8e-07, "MEAN_MOTION_DDOT": 0}, "tle": {"line1": "1 38833U 12053A   25343.85972885  .00000068  00000+0  00000+0 0  9997", "line2": "2 38833  53.5569 151.3565 0175755  63.9530 297.8432  2.00564945 95646"}}, "geometry": {"type": "Point", "coordinates": [154.74847986424186, 4.69884686350078]}}, {"type": "Feature", "properties": {"norad_id": 38857, "name": "GSAT0103 (GALILEO-FM3)", "group": "gnss", "lat": 44.333700821740486, "lon": 148.47721587463306, "alt_km": 23223.53182816208, "timestamp": "2025-12-11T20:41:15.323900+00:00", "meta": {"OBJECT_NAME": "GSAT0103 (GALILEO-FM3)", "OBJECT_ID": "2012-055A", "EPOCH": "2025-12-10T14:16:18.944544", "MEAN_MOTION": 1.70473311, "ECCENTRICITY": 0.00025926, "INCLINATION": 55.6913, "RA_OF_ASC_NODE": 106.7254, "ARG_OF_PERICENTER": 268.6178, "MEAN_ANOMALY": 91.322, "EPHEMERIS_TYPE": 0, "CLASSIFICATION_TYPE": "U", "NORAD_CAT_ID": 38857, "ELEMENT_SET_NO": 999, "REV_AT_EPOCH": 8179, "BSTAR": 0, "MEAN_MOTION_DOT": 1.1e-07, "MEAN_MOTION_DDOT": 0}, "tle": {"line1": "1 38857U 12055A   25344.59466371  .00000011  00000+0  00000+0 0  9993", "line2": "2 38857  55.6913 106.7254 0002592 268.6178  91.3220  1.70473311 81792"}}, "geometry": {"type": "Point", "coordinates": [148.47721587463306, 44.333700821740486]}}, {"type": "Feature", "properties": {"norad_id": 38953, "name": "BEIDOU-2 G6 (C02)", "group": "gnss", "lat": 2.5352342745997163, "lon": 115.15916383653301, "alt_km": 35797.529628975775, "timestamp": "2025-12-11T20:41:15.323914+00:00", "meta": {"OBJECT_NAME": "BEIDOU-2 G6 (C02)", "OBJECT_ID": "2012-059A", "EPOCH": "2025-12-11T15:37:25.426272", "MEAN_MOTION": 1.00269683, "ECCENTRICITY": 0.00077066, "INCLINATION": 3.9468, "RA_OF_ASC_NODE": 75.513, "ARG_OF_PERICENTER": 289.3651, "MEAN_ANOMALY": 34.1026, "EPHEMERIS_TYPE": 0, "CLASSIFICATION_TYPE": "U", "NORAD_CAT_ID": 38953, "ELEMENT_SET_NO": 999, "REV_AT_EPOCH": 4802, "BSTAR": 0, "MEAN_MOTION_DOT": -1.68e-06, "MEAN_MOTION_DDOT": 0}, "tle": {"line1": "1 38953U 12059A   25345.65098873 -.00000168  00000+0  00000+0 0  9994", "line2": "2 38953   3.9468  75.5130 0007706 289.3651  34.1026  1.00269683 48020"}}, "geometry": {"type": "Point", "coordinates": [115.15916383653301, 2.5352342745997163]}}, {"type": "Feature", "properties": {"norad_id": 38977, "name": "LUCH 5B (SDCM/PRN 125)", "group": "gnss", "lat": -6.0230277074611935, "lon": 15.280935903067212, "alt_km": 35806.79231570162, "timestamp": "2025-12-11T20:41:15.323926+00:00", "meta": {"OBJECT_NAME": "LUCH 5B (SDCM/PRN 125)", "OBJECT_ID": "2012-061A", "EPOCH": "2025-12-11T10:00:41.042880", "MEAN_MOTION": 1.00272299, "ECCENTRICITY": 0.00072881, "INCLINATION": 10.0788, "RA_OF_ASC_NODE": 51.7197, "ARG_OF_PERICENTER": 192.479, "MEAN_ANOMALY": 330.0093, "EPHEMERIS_TYPE": 0, "CLASSIFICATION_TYPE": "U", "NORAD_CAT_ID": 38977, "ELEMENT_SET_NO": 999, "REV_AT_EPOCH": 4772, "BSTAR": 0, "MEAN_MOTION_DOT": -1.34e-06, "MEAN_MOTION_DDOT": 0}, "tle": {"line1": "1 38977U 12061A   25345.41714170 -.00000134  00000+0  00000+0 0  9995", "line2": "2 38977  10.0788  51.7197 0007288 192.4790 330.0093  1.00272299 47727"}}, "geometry": {"type": "Point", "coordinates": [15.280935903067212, -6.0230277074611935]}}, {"type": "Feature", "properties": {"norad_id": 39155, "name": "COSMOS 2485 (747)", "group": "gnss", "lat": 33.63414450736844, "lon": -117.89027289888618, "alt_km": 19122.231458705184, "timestamp": "2025-12-11T20:41:15.323940+00:00", "meta": {"OBJECT_NAME": "COSMOS 2485 (747)", "OBJECT_ID": "2013-019A", "EPOCH": "2025-12-10T17:41:35.437344", "MEAN_MOTION": 2.13102878, "ECCENTRICITY": 0.00245732, "INCLINATION": 65.3124, "RA_OF_ASC_NODE": 79.9346, "ARG_OF_PERICENTER": 229.2052, "MEAN_ANOMALY": 130.5984, "EPHEMERIS_TYPE": 0, "CLASSIFICATION_TYPE": "U", "NORAD_CAT_ID": 39155, "ELEMENT_SET_NO": 999, "REV_AT_EPOCH": 9826, "BSTAR": 0, "MEAN_MOTION_DOT": -2.2e-07, "MEAN_MOTION_DDOT": 0}, "tle": {"line1": "1 39155U 13019A   25344.73721571 -.00000022  00000+0  00000+0 0  9991", "line2": "2 39155  65.3124  79.9346 0024573 229.2052 130.5984  2.13102878 98264"}}, "geometry": {"type": "Point", "coordinates": [-117.89027289888618, 33.63414450736844]}}, {"type": "Feature", "properties": {"norad_id": 39166, "name": "GPS BIIF-4  (PRN 27)", "group": "gnss", "lat": 51.46740886363754, "lon": 33.70387046485303, "alt_km": 19978.135972737273, "timestamp": "2025-12-11T20:41:15.323951+00:00", "meta": {"OBJECT_NAME": "GPS BIIF-4  (PRN 27)", "OBJECT_ID": "2013-023A", "EPOCH": "2025-12-11T05:15:59.310144", "MEAN_MOTION": 2.0056514, "ECCENTRICITY": 0.01377988, "INCLINATION": 54.6533, "RA_OF_ASC_NODE": 276.63, "ARG_OF_PERICENTER": 48.5969, "MEAN_ANOMALY": 312.5932, "EPHEMERIS_TYPE": 0, "CLASSIFICATION_TYPE": "U", "NORAD_CAT_ID": 39166, "ELEMENT_SET_NO": 999, "REV_AT_EPOCH": 9211, "BSTAR": 0, "MEAN_MOTION_DOT": -6.7e-07, "MEAN_MOTION_DDOT": 0}, "tle": {"line1": "1 39166U 13023A   25345.21943646 -.00000067  00000+0  00000+0 0  9990", "line2": "2 39166  54.6533 276.6300 0137798  48.5969 312.5932  2.00565140 92114"}}, "geometry": {"type": "Point", "coordinates": [33.70387046485303, 51.46740886363754]}}, {"type": "Feature", "properties": {"norad_id": 39199, "name": "IRNSS-1A", "group": "gnss", "lat": 11.350143936877995, "lon": 83.01741015791744, "alt_km": 35870.89876125069, "timestamp": "2025-12-11T20:41:15.323965+00:00", "meta": {"OBJECT_NAME": "IRNSS-1A", "OBJECT_ID": "2013-034A", "EPOCH": "2025-12-02T19:49:26.431104", "MEAN_MOTION": 1.00279053, "ECCENTRICITY": 0.00216608, "INCLINATION": 35.2852, "RA_OF_ASC_NODE": 66.6964, "ARG_OF_PERICENTER": 185.4059, "MEAN_ANOMALY": 172.3398, "EPHEMERIS_TYPE": 0, "CLASSIFICATION_TYPE": "U", "NORAD_CAT_ID": 39199, "ELEMENT_SET_NO": 999, "REV_AT_EPOCH": 4539, "BSTAR": 0, "MEAN_MOTION_DOT": 6.5e-07, "MEAN_MOTION_DDOT": 0}, "tle": {"line1": "1 39199U 13034A   25336.82600036  .00000065  00000+0  00000+0 0  9995", "line2": "2 39199  35.2852  66.6964 0021660 185.4059 172.3398  1.00279053 45393"}}, "geometry": {"type": "Point", "coordinates": [83.01741015791744, 11.350143936877995]}}, {"type": "Feature", "properties": {"norad_id": 39533, "name": "GPS BIIF-5  (PRN 30)", "group": "gnss", "lat": 50.394230730265065, "lon": -86.01739835386839, "alt_km": 20278.10961539386, "timestamp": "2025-12-11T20:41:15.323977+00:00", "meta": {"OBJECT_NAME": "GPS BIIF-5  (PRN 30)", "OBJECT_ID": "2014-008A", "EPOCH": "2025-12-10T17:09:32.568192", "MEAN_MOTION": 2.00574305, "ECCENTRICITY": 0.0079159, "INCLINATION": 53.631, "RA_OF_ASC_NODE": 157.0072, "ARG_OF_PERICENTER": 226.4701, "MEAN_ANOMALY": 132.8778, "EPHEMERIS_TYPE": 0, "CLASSIFICATION_TYPE": "U", "NORAD_CAT_ID": 39533, "ELEMENT_SET_NO": 999, "REV_AT_EPOCH": 8590, "BSTAR": 0, "MEAN_MOTION_DOT": 7.7e-07, "MEAN_MOTION_DDOT": 0}, "tle": {"line1": "1 39533U 14008A   25344.71496028  .00000077  00000+0  00000+0 0  9993", "line2": "2 39533  53.6310 157.0072 0079159 226.4701 132.8778  2.00574305 85902"}}, "geometry": {"type": "Point", "coordinates": [-86.01739835386839, 50.394230730265065]}}, {"type": "Feature", "properties": {"norad_id": 39617, "name": "ASTRA 5B (EGNOS/PRN 123)", "group": "gnss", "lat": 0.03462370645760878, "lon": 54.634468864485974, "alt_km": 35802.2631896934, "timestamp": "2025-12-11T20:41:15.323988+00:00", "meta": {"OBJECT_NAME": "ASTRA 5B (EGNOS/PRN 123)", "OBJECT_ID": "2014-011B", "EPOCH": "2025-12-11T13:37:21.923904", "MEAN_MOTION": 1.00271779, "ECCENTRICITY": 0.00044238, "INCLINATION": 0.059, "RA_OF_ASC_NODE": 35.9987, "ARG_OF_PERICENTER": 228.6389, "MEAN_ANOMALY": 43.7134, "EPHEMERIS_TYPE": 0, "CLASSIFICATION_TYPE": "U", "NORAD_CAT_ID": 39617, "ELEMENT_SET_NO": 999, "REV_AT_EPOCH": 4278, "BSTAR": 0, "MEAN_MOTION_DOT": 1.44e-06, "MEAN_MOTION_DDOT": 0}, "tle": {"line1": "1 39617U 14011B   25345.56761486  .00000144  00000+0  00000+0 0  9992", "line2": "2 39617   0.0590  35.9987 0004423 228.6389  43.7134  1.00271779 42781"}}, "geometry": {"type": "Point", "coordinates": [54.634468864485974, 0.03462370645760878]}}]}